[{"OBJECT_NAME":"STARLINK-31704","OBJECT_ID":"2024-076Y","EPOCH":"2026-03-09T22:00:01.999584","MEAN_MOTION":15.30892355,"ECCENTRICITY":0.00079744,"INCLINATION":42.9978,"RA_OF_ASC_NODE":323.2923,"ARG_OF_PERICENTER":240.5046,"MEAN_ANOMALY":200.4144,"EPHEMERIS_TYPE":0,"CLASSIFICATION_TYPE":"U","NORAD_CAT_ID":59586,"ELEMENT_SET_NO":999,"REV_AT_EPOCH":581,"BSTAR":0.0024766131,"MEAN_MOTION_DOT":0.00076042,"MEAN_MOTION_DDOT":0},{"OBJECT_NAME":"STARLINK-31996","OBJECT_ID":"2024-117K","EPOCH":"2026-03-09T07:45:46.003968","MEAN_MOTION":15.30178795,"ECCENTRICITY":0.00012672,"INCLINATION":53.1613,"RA_OF_ASC_NODE":38.5903,"ARG_OF_PERICENTER":87.5677,"MEAN_ANOMALY":272.5469,"EPHEMERIS_TYPE":0,"CLASSIFICATION_TYPE":"U","NORAD_CAT_ID":60100,"ELEMENT_SET_NO":999,"REV_AT_EPOCH":9683,"BSTAR":3.5447249e-5,"MEAN_MOTION_DOT":6.9e-6,"MEAN_MOTION_DDOT":0}]
